NORAD_CAT_ID,OBJECT_NAME,OBJECT_TYPE,EPOCH,MEAN_MOTION,ECCENTRICITY,INCLINATION,RA_OF_ASC_NODE,ARG_OF_PERICENTER,MEAN_ANOMALY,BSTAR,MEAN_MOTION_DOT,MEAN_MOTION_DDOT,TLE_LINE0,TLE_LINE1,TLE_LINE2,SEMIMAJOR_AXIS,PERIOD,APOGEE,PERIGEE,DECAYED
51979.0,STARLINK-3656,PAYLOAD,2022-04-07 20:00:01,15.64997046,0.0001085,53.2178,355.0582,99.7906,226.3485,-0.0078288,-0.0071826,0.0,0 STARLINK-3656,1 51979U 22025Z   22097.83334491 -.00718260  00000-0 -78288-2 0  9998,2 51979  53.2178 355.0582 0001085  99.7906 226.3485 15.64997046  5894,6751.384,92.013,373.982,372.517,0.0
51979.0,STARLINK-3656,PAYLOAD,2022-04-07 22:00:00,15.64868779,0.0001064,53.2176,354.6516,88.205,347.6811,-0.0078576,-0.00717287,0.0,0 STARLINK-3656,1 51979U 22025Z   22097.91667824 -.00717287  00000-0 -78576-2 0  9994,2 51979  53.2176 354.6516 0001064  88.2050 347.6811 15.64868779  3689,6751.753000000002,92.02,374.337,372.9,0.0
51979.0,STARLINK-3656,PAYLOAD,2022-04-08 14:00:03,15.6384766,0.0001225,53.2172,351.3947,102.3574,130.2578,-0.0081558999999999,-0.00715025,0.0,0 STARLINK-3656,1 51979U 22025Z   22098.58336806 -.00715025  00000-0 -81559-2 0  9994,2 51979  53.2172 351.3947 0001225 102.3574 130.2578 15.63847660  3709,6754.691999999999,92.081,377.384,375.729,0.0
51979.0,STARLINK-3656,PAYLOAD,2022-04-08 22:00:00,15.63337701,0.0001131,53.2174,349.7709,94.7759,215.0873,-0.0083208,-0.00714875,0.0,0 STARLINK-3656,1 51979U 22025Z   22098.91667824 -.00714875  00000-0 -83208-2 0  9993,2 51979  53.2174 349.7709 0001131  94.7759 215.0873 15.63337701  6065,6756.161,92.111,378.79,377.262,0.0
51979.0,STARLINK-3656,PAYLOAD,2022-04-09 14:00:01,15.62318543,0.0001091,53.2172,346.5215,102.5486,0.236,-0.0086856,-0.0071668,0.0,0 STARLINK-3656,1 51979U 22025Z   22099.58334491 -.00716680  00000-0 -86856-2 0  9996,2 51979  53.2172 346.5215 0001091 102.5486   0.2360 15.62318543  3716,6759.099,92.171,381.701,380.226,0.0
51979.0,STARLINK-3656,PAYLOAD,2022-04-09 22:00:00,15.6180685,0.000124,53.2173,344.9012,88.9008,89.4246,-0.0088165999999999,-0.00713385,0.0,0 STARLINK-3656,1 51979U 22025Z   22099.91667824 -.00713385  00000-0 -88166-2 0  9997,2 51979  53.2173 344.9012 0001240  88.9008  89.4246 15.61806850  6219,6760.575,92.201,383.278,381.602,0.0
51979.0,STARLINK-3656,PAYLOAD,2022-04-10 14:00:01,15.607865300000002,0.0001168,53.2175,341.6592,113.1638,214.4065,-0.0091641,-0.00712695,0.0,0 STARLINK-3656,1 51979U 22025Z   22100.58334491 -.00712695  00000-0 -91641-2 0  9999,2 51979  53.2175 341.6592 0001168 113.1638 214.4065 15.60786530  3708,6763.521,92.261,386.176,384.596,0.0
51979.0,STARLINK-3656,PAYLOAD,2022-04-10 20:00:01,15.60405828,0.0001167,53.2177,340.4468,92.1385,200.7647,-0.0093298,-0.00714787,0.0,0 STARLINK-3656,1 51979U 22025Z   22100.83334491 -.00714787  00000-0 -93298-2 0  9991,2 51979  53.2177 340.4468 0001167  92.1385 200.7647 15.60405828  6360,6764.621,92.284,387.275,385.697,0.0
51979.0,STARLINK-3656,PAYLOAD,2022-04-10 22:00:00,15.60279306,0.0001047,53.2176,340.0429,82.6725,318.5983,-0.0094008,-0.00716537,0.0,0 STARLINK-3656,1 51979U 22025Z   22100.91667824 -.00716537  00000-0 -94008-2 0  9994,2 51979  53.2176 340.0429 0001047  82.6725 318.5983 15.60279306  3718,6764.986999999999,92.291,387.56,386.143,0.0
51979.0,STARLINK-3656,PAYLOAD,2022-04-11 14:00:01,15.59259211,0.0001244,53.2173,336.80800000000005,95.7949,91.0443,-0.009776,-0.00716534,0.0,0 STARLINK-3656,1 51979U 22025Z   22101.58334491 -.00716534  00000-0 -97760-2 0  9994,2 51979  53.2173 336.8080 0001244  95.7949  91.0443 15.59259211  3707,6767.937,92.352,390.644,388.96,0.0
51979.0,STARLINK-3656,PAYLOAD,2022-04-11 20:00:01,15.58874546,0.0001222,53.2173,335.5984,85.9808,64.8141,-0.0098593,-0.00712459,0.0,0 STARLINK-3656,1 51979U 22025Z   22101.83334491 -.00712459  00000-0 -98593-2 0  9999,2 51979  53.2173 335.5984 0001222  85.9808  64.8141 15.58874546  6515,6769.05,92.374,391.742,390.088,0.0
51979.0,STARLINK-3656,PAYLOAD,2022-04-11 22:00:00,15.58747594,0.0001249,53.2173,335.1954,92.2997,166.4033,-0.0099285,-0.00713873,0.0,0 STARLINK-3656,1 51979U 22025Z   22101.91667824 -.00713873  00000-0 -99285-2 0  9997,2 51979  53.2173 335.1954 0001249  92.2997 166.4033 15.58747594  3683,6769.418000000002,92.382,392.128,390.437,0.0
51979.0,STARLINK-3656,PAYLOAD,2022-04-12 14:00:01,15.57727029,0.000109,53.2174,331.968,103.7717,296.823,-0.010299,-0.00712472,0.0,0 STARLINK-3656,1 51979U 22025Z   22102.58334491 -.00712472  00000-0 -10299-1 0  9993,2 51979  53.2174 331.9680 0001090 103.7717 296.8230 15.57727029  3717,6772.374,92.442,394.977,393.501,0.0
51979.0,STARLINK-3656,PAYLOAD,2022-04-12 20:00:01,15.57346596,0.0001065,53.2175,330.7613,94.4447,268.7252,-0.010493,-0.00715285,0.0,0 STARLINK-3656,1 51979U 22025Z   22102.83334491 -.00715285  00000-0 -10493-1 0  9992,2 51979  53.2175 330.7613 0001065  94.4447 268.7252 15.57346596  6675,6773.477,92.465,396.06300000000016,394.621,0.0
51979.0,STARLINK-3656,PAYLOAD,2022-04-12 22:00:00,15.57219335,0.0001162,53.2174,330.3592,84.5855,26.0331,-0.01055,-0.00715711,0.0,0 STARLINK-3656,1 51979U 22025Z   22102.91667824 -.00715711  00000-0 -10550-1 0  9998,2 51979  53.2174 330.3592 0001162  84.5855  26.0331 15.57219335  3699,6773.846,92.473,396.49800000000016,394.924,0.0
51979.0,STARLINK-3656,PAYLOAD,2022-04-13 14:00:03,15.56198184,0.0001274,53.2176,327.1389,100.7495,148.2141,-0.010922,-0.00713347,0.0,0 STARLINK-3656,1 51979U 22025Z   22103.58336806 -.00713347  00000-0 -10922-1 0  9991,2 51979  53.2176 327.1389 0001274 100.7495 148.2141 15.56198184  3709,6776.809,92.533,399.537,397.811,0.0
51979.0,STARLINK-3656,PAYLOAD,2022-04-13 22:00:00,15.55689048,0.0001174,53.2176,325.534,76.3121,240.708,-0.011163,-0.00715193,0.0,0 STARLINK-3656,1 51979U 22025Z   22103.91667824 -.00715193  00000-0 -11163-1 0  9994,2 51979  53.2176 325.5340 0001174  76.3121 240.7080 15.55689048  6842,6778.2869999999975,92.563,400.948,399.357,0.0
51979.0,STARLINK-3656,PAYLOAD,2022-04-14 14:00:01,15.54668003,0.0001129,53.2175,322.3213,79.874,11.6843,-0.011544,-0.00712388,0.0,0 STARLINK-3656,1 51979U 22025Z   22104.58334491 -.00712388  00000-0 -11544-1 0  9995,2 51979  53.2175 322.3213 0001129  79.8740  11.6843 15.54668003  3699,6781.255,92.624,403.885,402.354,0.0
51979.0,STARLINK-3656,PAYLOAD,2022-04-14 22:00:00,15.54158732,0.0001293,53.2173,320.7199,74.1979,83.7083,-0.01179,-0.00713936,0.0,0 STARLINK-3656,1 51979U 22025Z   22104.91667824 -.00713936  00000-0 -11790-1 0  9994,2 51979  53.2173 320.7199 0001293  74.1979  83.7083 15.54158732  3707,6782.736,92.655,405.478,403.724,0.0
51979.0,STARLINK-3656,PAYLOAD,2022-04-15 05:02:27,15.54422454,2.75e-05,53.2167,319.3034,102.2142,257.8901,-0.0056597,-0.0036183,0.0,0 STARLINK-3656,1 51979U 22025Z   22105.21004339 -.00361830  00000-0 -56597-2 0  9991,2 51979  53.2167 319.3034 0000275 102.2142 257.8901 15.54422454  7045,6781.969,92.639,404.021,403.647,0.0
51979.0,STARLINK-3656,PAYLOAD,2022-04-15 14:00:01,15.53137527,0.0001216,53.2175,317.5145,93.4177,195.3501,-0.01218,-0.00710752,0.0,0 STARLINK-3656,1 51979U 22025Z   22105.58334491 -.00710752  00000-0 -12180-1 0  9996,2 51979  53.2175 317.5145 0001216  93.4177 195.3501 15.53137527  7104,6785.709,92.716,408.399,406.749,0.0
51979.0,STARLINK-3656,PAYLOAD,2022-04-15 22:00:00,15.52630007,0.0001175,53.2175,315.9169,70.8962,282.3806,-0.012506,-0.00715929,0.0,0 STARLINK-3656,1 51979U 22025Z   22105.91667824 -.00715929  00000-0 -12506-1 0  9995,2 51979  53.2175 315.9169 0001175  70.8962 282.3806 15.52630007  3670,6787.188,92.746,409.85,408.255,0.0
51979.0,STARLINK-3656,PAYLOAD,2022-04-16 14:00:01,15.51608149,0.0001217,53.2177,312.7189,73.541,46.9209,-0.012891,-0.00711572,0.0,0 STARLINK-3656,1 51979U 22025Z   22106.58334491 -.00711572  00000-0 -12891-1 0  9997,2 51979  53.2177 312.7189 0001217  73.5410  46.9209 15.51608149  7254,6790.167,92.807,412.859,411.206,0.0
51979.0,STARLINK-3656,PAYLOAD,2022-04-16 22:00:01,15.5109801,0.0001363,53.2176,311.1247,70.0549,113.1432,-0.013132,-0.00720802,0.0,0 STARLINK-3656,1 51979U 22025Z   22106.91668981 -.00720802  00000-0 -13132-1 0  9993,2 51979  53.2176 311.1247 0001363  70.0549 113.1432 15.51098010  3710,6791.656,92.837,414.447,412.595,0.0
51979.0,STARLINK-3656,PAYLOAD,2022-04-17 14:00:01,15.49940117,0.0001286999999999,53.2177,307.9338,83.6239,223.0347,-0.0015157,-0.00085707,0.0,0 STARLINK-3656,1 51979U 22025Z   22107.58334491 -.00085707  00000-0 -15157-2 0  9991,2 51979  53.2177 307.9338 0001287  83.6239 223.0347 15.49940117  7414,6795.038000000001,92.907,417.778,416.029,0.0
51979.0,STARLINK-3656,PAYLOAD,2022-04-17 22:00:00,15.49887745,0.0001184,53.2175,306.3427,80.7848,286.8131,-7.508e-05,-4.71e-05,0.0,0 STARLINK-3656,1 51979U 22025Z   22107.91667824 -.00004710  00000-0 -75080-4 0  9995,2 51979  53.2175 306.3427 0001184  80.7848 286.8131 15.49887745  3707,6795.191,92.91,417.861,416.252,0.0
51979.0,STARLINK-3656,PAYLOAD,2022-04-18 08:00:01,15.49901867,0.0001142,53.216,304.3434,85.59899999999998,88.3517,0.00037026,0.00020631,0.0,0 STARLINK-3656,1 51979U 22025Z   22108.33334491  .00020631  00000-0  37026-3 0  9998,2 51979  53.2160 304.3434 0001142  85.5990  88.3517 15.49901867  7521,6795.15,92.909,417.791,416.239,0.0
51979.0,STARLINK-3656,PAYLOAD,2022-04-18 14:00:01,15.49926711,0.0001264999999999,53.2163,303.1484,89.9732,39.6599,-0.00051786,-0.00029774,0.0,0 STARLINK-3656,1 51979U 22025Z   22108.58334491 -.00029774  00000-0 -51786-3 0  9993,2 51979  53.2163 303.1484 0001265  89.9732  39.6599 15.49926711  3704,6795.0769999999975,92.908,417.802,416.083,0.0
51979.0,STARLINK-3656,PAYLOAD,2022-04-18 20:00:01,15.49926854,0.0001271,53.2162,301.9552,78.9056,6.4354,-0.00063948,-0.00036629,0.0,0 STARLINK-3656,1 51979U 22025Z   22108.83334491 -.00036629  00000-0 -63948-3 0  9991,2 51979  53.2162 301.9552 0001271  78.9056   6.4354 15.49926854  7601,6795.0769999999975,92.908,417.806,416.078,0.0
